[{"OBJECT_NAME":"STARLINK-31044","OBJECT_ID":"2023-200A","EPOCH":"2026-03-09T22:00:01.999584","MEAN_MOTION":15.26737193,"ECCENTRICITY":8.919e-5,"INCLINATION":43.0016,"RA_OF_ASC_NODE":167.4674,"ARG_OF_PERICENTER":247.4599,"MEAN_ANOMALY":217.1503,"EPHEMERIS_TYPE":0,"CLASSIFICATION_TYPE":"U","NORAD_CAT_ID":58589,"ELEMENT_SET_NO":999,"REV_AT_EPOCH":572,"BSTAR":-0.0017094972,"MEAN_MOTION_DOT":-0.00045826,"MEAN_MOTION_DDOT":0},{"OBJECT_NAME":"TSX-5","OBJECT_ID":"2000-030A","EPOCH":"2026-03-09T21:12:25.441056","MEAN_MOTION":14.57965705,"ECCENTRICITY":0.04447223,"INCLINATION":68.9141,"RA_OF_ASC_NODE":228.535,"ARG_OF_PERICENTER":180.8093,"MEAN_ANOMALY":179.2379,"EPHEMERIS_TYPE":0,"CLASSIFICATION_TYPE":"U","NORAD_CAT_ID":26374,"ELEMENT_SET_NO":999,"REV_AT_EPOCH":30806,"BSTAR":0.0016357838,"MEAN_MOTION_DOT":0.00031184,"MEAN_MOTION_DDOT":0}]
